{
  "type": "FeatureCollection",
  "features": [
    {
      "type": "Feature",
      "properties": {
        "norad_id": 39160,
        "name": "VNREDSAT 1",
        "group": "resource",
        "lat": 5.339192919194206,
        "lon": -134.61801557228324,
        "alt_km": 679.70183120811,
        "timestamp": "2025-12-15T10:55:20.786593+00:00",
        "meta_object_name": "VNREDSAT 1",
        "meta_object_id": "2013-021B",
        "meta_epoch": "2025-12-14T22:39:12.758688",
        "meta_mean_motion": 14.64928231,
        "meta_eccentricity": 0.00012756,
        "meta_inclination": 97.9374,
        "meta_ra_of_asc_node": 44.1416,
        "meta_arg_of_pericenter": 78.2378,
        "meta_mean_anomaly": 281.8969,
        "meta_ephemeris_type": 0,
        "meta_classification_type": "U",
        "meta_norad_cat_id": 39160,
        "meta_element_set_no": 999,
        "meta_rev_at_epoch": 67331,
        "meta_bstar": 0.0002138992,
        "meta_mean_motion_dot": 1.099e-05,
        "meta_mean_motion_ddot": 0,
        "tle_line1": "1 39160U 13021B   25348.94389767  .00001099  00000+0  21390-3 0  9997",
        "tle_line2": "2 39160  97.9374  44.1416 0001275  78.2378 281.8969 14.64928231673313"
      },
      "geometry": {
        "type": "Point",
        "coordinates": [
          -134.61801557228324,
          5.339192919194206
        ]
      }
    },
    {
      "type": "Feature",
      "properties": {
        "norad_id": 39227,
        "name": "ARIRANG-5 (KOMPSAT-5)",
        "group": "resource",
        "lat": -78.10139741101031,
        "lon": -146.86525219736626,
        "alt_km": 561.8213327389103,
        "timestamp": "2025-12-15T10:55:20.786603+00:00",
        "meta_object_name": "ARIRANG-5 (KOMPSAT-5)",
        "meta_object_id": "2013-042A",
        "meta_epoch": "2025-12-14T22:30:42.322176",
        "meta_mean_motion": 15.04520317,
        "meta_eccentricity": 0.00035347,
        "meta_inclination": 97.6149,
        "meta_ra_of_asc_node": 173.2102,
        "meta_arg_of_pericenter": 48.8082,
        "meta_mean_anomaly": 311.3448,
        "meta_ephemeris_type": 0,
        "meta_classification_type": "U",
        "meta_norad_cat_id": 39227,
        "meta_element_set_no": 999,
        "meta_rev_at_epoch": 67615,
        "meta_bstar": 0.00023963838,
        "meta_mean_motion_dot": 3.296e-05,
        "meta_mean_motion_ddot": 0,
        "tle_line1": "1 39227U 13042A   25348.93798984  .00003296  00000+0  23964-3 0  9998",
        "tle_line2": "2 39227  97.6149 173.2102 0003534  48.8082 311.3448 15.04520317676159"
      },
      "geometry": {
        "type": "Point",
        "coordinates": [
          -146.86525219736626,
          -78.10139741101031
        ]
      }
    },
    {
      "type": "Feature",
      "properties": {
        "norad_id": 39418,
        "name": "SKYSAT-A",
        "group": "resource",
        "lat": 1.6173240253631322,
        "lon": 39.37073209230058,
        "alt_km": 544.2513714136667,
        "timestamp": "2025-12-15T10:55:20.786614+00:00",
        "meta_object_name": "SKYSAT-A",
        "meta_object_id": "2013-066C",
        "meta_epoch": "2025-12-14T17:26:22.033824",
        "meta_mean_motion": 15.11622039,
        "meta_eccentricity": 0.00207688,
        "meta_inclination": 97.4112,
        "meta_ra_of_asc_node": 38.8749,
        "meta_arg_of_pericenter": 229.1894,
        "meta_mean_anomaly": 130.7536,
        "meta_ephemeris_type": 0,
        "meta_classification_type": "U",
        "meta_norad_cat_id": 39418,
        "meta_element_set_no": 999,
        "meta_rev_at_epoch": 66060,
        "meta_bstar": 0.00017933961,
        "meta_mean_motion_dot": 2.998e-05,
        "meta_mean_motion_ddot": 0,
        "tle_line1": "1 39418U 13066C   25348.72664391  .00002998  00000+0  17934-3 0  9995",
        "tle_line2": "2 39418  97.4112  38.8749 0020768 229.1894 130.7536 15.11622039660601"
      },
      "geometry": {
        "type": "Point",
        "coordinates": [
          39.37073209230058,
          1.6173240253631322
        ]
      }
    },
    {
      "type": "Feature",
      "properties": {
        "norad_id": 39419,
        "name": "DUBAISAT-2",
        "group": "resource",
        "lat": 66.7144018718962,
        "lon": 177.46893162931377,
        "alt_km": 541.2956895543693,
        "timestamp": "2025-12-15T10:55:20.786625+00:00",
        "meta_object_name": "DUBAISAT-2",
        "meta_object_id": "2013-066D",
        "meta_epoch": "2025-12-14T23:16:56.520768",
        "meta_mean_motion": 15.08388967,
        "meta_eccentricity": 0.00102604,
        "meta_inclination": 97.4455,
        "meta_ra_of_asc_node": 339.3088,
        "meta_arg_of_pericenter": 313.8016,
        "meta_mean_anomaly": 46.2363,
        "meta_ephemeris_type": 0,
        "meta_classification_type": "U",
        "meta_norad_cat_id": 39419,
        "meta_element_set_no": 999,
        "meta_rev_at_epoch": 65860,
        "meta_bstar": 0.00036282978,
        "meta_mean_motion_dot": 5.587e-05,
        "meta_mean_motion_ddot": 0,
        "tle_line1": "1 39419U 13066D   25348.97009862  .00005587  00000+0  36283-3 0  9994",
        "tle_line2": "2 39419  97.4455 339.3088 0010260 313.8016  46.2363 15.08388967658601"
      },
      "geometry": {
        "type": "Point",
        "coordinates": [
          177.46893162931377,
          66.7144018718962
        ]
      }
    },
    {
      "type": "Feature",
      "properties": {
        "norad_id": 39574,
        "name": "GPM-CORE",
        "group": "resource",
        "lat": -57.78360884379428,
        "lon": 71.44318267265947,
        "alt_km": 432.31487722169277,
        "timestamp": "2025-12-15T10:55:20.786635+00:00",
        "meta_object_name": "GPM-CORE",
        "meta_object_id": "2014-009C",
        "meta_epoch": "2025-12-14T21:24:56.094624",
        "meta_mean_motion": 15.44502745,
        "meta_eccentricity": 0.00097002,
        "meta_inclination": 64.9734,
        "meta_ra_of_asc_node": 205.4726,
        "meta_arg_of_pericenter": 246.0366,
        "meta_mean_anomaly": 113.9759,
        "meta_ephemeris_type": 0,
        "meta_classification_type": "U",
        "meta_norad_cat_id": 39574,
        "meta_element_set_no": 999,
        "meta_rev_at_epoch": 66934,
        "meta_bstar": 0.00013113885,
        "meta_mean_motion_dot": 5.869e-05,
        "meta_mean_motion_ddot": 0,
        "tle_line1": "1 39574U 14009C   25348.89231591  .00005869  00000+0  13114-3 0  9992",
        "tle_line2": "2 39574  64.9734 205.4726 0009700 246.0366 113.9759 15.44502745669342"
      },
      "geometry": {
        "type": "Point",
        "coordinates": [
          71.44318267265947,
          -57.78360884379428
        ]
      }
    },
    {
      "type": "Feature",
      "properties": {
        "norad_id": 39634,
        "name": "SENTINEL-1A",
        "group": "resource",
        "lat": -20.2901136751143,
        "lon": -2.294472773139328,
        "alt_km": 701.1787756284002,
        "timestamp": "2025-12-15T10:55:20.786645+00:00",
        "meta_object_name": "SENTINEL-1A",
        "meta_object_id": "2014-016A",
        "meta_epoch": "2025-12-14T23:29:46.413888",
        "meta_mean_motion": 14.59200486,
        "meta_eccentricity": 0.00012469,
        "meta_inclination": 98.1808,
        "meta_ra_of_asc_node": 354.1877,
        "meta_arg_of_pericenter": 85.4109,
        "meta_mean_anomaly": 274.7233,
        "meta_ephemeris_type": 0,
        "meta_classification_type": "U",
        "meta_norad_cat_id": 39634,
        "meta_element_set_no": 999,
        "meta_rev_at_epoch": 62315,
        "meta_bstar": 0.00011252245,
        "meta_mean_motion_dot": 4.85e-06,
        "meta_mean_motion_ddot": 0,
        "tle_line1": "1 39634U 14016A   25348.97900942  .00000485  00000+0  11252-3 0  9999",
        "tle_line2": "2 39634  98.1808 354.1877 0001246  85.4109 274.7233 14.59200486623150"
      },
      "geometry": {
        "type": "Point",
        "coordinates": [
          -2.294472773139328,
          -20.2901136751143
        ]
      }
    },
    {
      "type": "Feature",
      "properties": {
        "norad_id": 39731,
        "name": "KAZEOSAT 1",
        "group": "resource",
        "lat": 32.60883365322404,
        "lon": -113.311802061587,
        "alt_km": 749.2113719512154,
        "timestamp": "2025-12-15T10:55:20.786656+00:00",
        "meta_object_name": "KAZEOSAT 1",
        "meta_object_id": "2014-024A",
        "meta_epoch": "2025-12-14T22:35:12.583968",
        "meta_mean_motion": 14.42064325,
        "meta_eccentricity": 0.00011414,
        "meta_inclination": 98.3431,
        "meta_ra_of_asc_node": 60.7989,
        "meta_arg_of_pericenter": 96.6148,
        "meta_mean_anomaly": 263.5172,
        "meta_ephemeris_type": 0,
        "meta_classification_type": "U",
        "meta_norad_cat_id": 39731,
        "meta_element_set_no": 999,
        "meta_rev_at_epoch": 61200,
        "meta_bstar": 0.00010464472,
        "meta_mean_motion_dot": 3.01e-06,
        "meta_mean_motion_ddot": 0,
        "tle_line1": "1 39731U 14024A   25348.94111787  .00000301  00000+0  10464-3 0  9995",
        "tle_line2": "2 39731  98.3431  60.7989 0001141  96.6148 263.5172 14.42064325612009"
      },
      "geometry": {
        "type": "Point",
        "coordinates": [
          -113.311802061587,
          32.60883365322404
        ]
      }
    }
  ]
}